[
    {
        "CCSDS_OMM_VERS": "3.0",
        "COMMENT": "GENERATED VIA SPACE-TRACK.ORG API",
        "CREATION_DATE": "2025-03-02T22:26:17",
        "ORIGINATOR": "18 SPCS",
        "OBJECT_NAME": "BEIDOU IGSO-6",
        "OBJECT_ID": "2016-021A",
        "CENTER_NAME": "EARTH",
        "REF_FRAME": "TEME",
        "TIME_SYSTEM": "UTC",
        "MEAN_ELEMENT_THEORY": "SGP4",
        "EPOCH": "2025-03-02T15:08:46.486176",
        "MEAN_MOTION": "1.00263978",
        "ECCENTRICITY": "0.00538120",
        "INCLINATION": "59.5623",
        "RA_OF_ASC_NODE": "42.7434",
        "ARG_OF_PERICENTER": "230.1180",
        "MEAN_ANOMALY": "210.7033",
        "EPHEMERIS_TYPE": "0",
        "CLASSIFICATION_TYPE": "U",
        "NORAD_CAT_ID": "41434",
        "ELEMENT_SET_NO": "999",
        "REV_AT_EPOCH": "3274",
        "BSTAR": "0.00000000000000",
        "MEAN_MOTION_DOT": "-0.00000142",
        "MEAN_MOTION_DDOT": "0.0000000000000",
        "SEMIMAJOR_AXIS": "42166.921",
        "PERIOD": "1436.209",
        "APOAPSIS": "36015.694",
        "PERIAPSIS": "35561.877",
        "OBJECT_TYPE": "PAYLOAD",
        "RCS_SIZE": "LARGE",
        "COUNTRY_CODE": "PRC",
        "LAUNCH_DATE": "2016-03-29",
        "SITE": "XSC",
        "DECAY_DATE": null,
        "FILE": "4657216",
        "GP_ID": "282101966",
        "TLE_LINE0": "0 BEIDOU IGSO-6",
        "TLE_LINE1": "1 41434U 16021A   25061.63109359 -.00000142  00000-0  00000+0 0  9993",
        "TLE_LINE2": "2 41434  59.5623  42.7434 0053812 230.1180 210.7033  1.00263978 32744"
    }
]